{"type": "FeatureCollection", "features": [ {"type": "Feature", "properties": {"norad_id": 67122, "name": "STARLINK-36188", "group": "last-30-days", "lat": 3.6984658568720046, "lon": -126.66731568062033, "alt_km": 337.8096918184974, "timestamp": "2025-12-26T23:26:40.924609+00:00", "meta": {"OBJECT_NAME": "STARLINK-36188", "OBJECT_ID": "2025-299W", "EPOCH": "2025-12-26T18:00:02.998944", "MEAN_MOTION": 15.78145109, "ECCENTRICITY": 0.000143, "INCLINATION": 42.9982, "RA_OF_ASC_NODE": 230.7366, "ARG_OF_PERICENTER": 265.6498, "MEAN_ANOMALY": 249.9583, "EPHEMERIS_TYPE": 0, "CLASSIFICATION_TYPE": "U", "NORAD_CAT_ID": 67122, "ELEMENT_SET_NO": 999, "REV_AT_EPOCH": 306, "BSTAR": -0.011709, "MEAN_MOTION_DOT": -0.01811134, "MEAN_MOTION_DDOT": 0}, "tle": {"line1": "1 67122U 25299W   25360.75003471 -.01811134  00000+0 -11709-1 0  9997", "line2": "2 67122  42.9982 230.7366 0001430 265.6498 249.9583 15.78145109  3069"}}, "geometry": {"type": "Point", "coordinates": [-126.66731568062033, 3.6984658568720046]}}, {"type": "Feature", "properties": {"norad_id": 67123, "name": "STARLINK-36151", "group": "last-30-days", "lat": 1.3961483327857067, "lon": -129.13793206984062, "alt_km": 338.07409698791525, "timestamp": "2025-12-26T23:26:40.924617+00:00", "meta": {"OBJECT_NAME": "STARLINK-36151", "OBJECT_ID": "2025-299X", "EPOCH": "2025-12-26T18:00:02.998944", "MEAN_MOTION": 15.78129214, "ECCENTRICITY": 0.0001406, "INCLINATION": 42.9983, "RA_OF_ASC_NODE": 230.7451, "ARG_OF_PERICENTER": 267.3716, "MEAN_ANOMALY": 244.8694, "EPHEMERIS_TYPE": 0, "CLASSIFICATION_TYPE": "U", "NORAD_CAT_ID": 67123, "ELEMENT_SET_NO": 999, "REV_AT_EPOCH": 306, "BSTAR": -0.011732, "MEAN_MOTION_DOT": -0.01813084, "MEAN_MOTION_DDOT": 0}, "tle": {"line1": "1 67123U 25299X   25360.75003471 -.01813084  00000+0 -11732-1 0  9990", "line2": "2 67123  42.9983 230.7451 0001406 267.3716 244.8694 15.78129214  3067"}}, "geometry": {"type": "Point", "coordinates": [-129.13793206984062, 1.3961483327857067]}}, {"type": "Feature", "properties": {"norad_id": 67124, "name": "STARLINK-36195", "group": "last-30-days", "lat": 4.862813313739362, "lon": -125.41101800662982, "alt_km": 337.67873691704517, "timestamp": "2025-12-26T23:26:40.924627+00:00", "meta": {"OBJECT_NAME": "STARLINK-36195", "OBJECT_ID": "2025-299Y", "EPOCH": "2025-12-26T18:00:02.998944", "MEAN_MOTION": 15.78154469, "ECCENTRICITY": 0.000144, "INCLINATION": 42.9984, "RA_OF_ASC_NODE": 230.7322, "ARG_OF_PERICENTER": 264.3516, "MEAN_ANOMALY": 252.9619, "EPHEMERIS_TYPE": 0, "CLASSIFICATION_TYPE": "U", "NORAD_CAT_ID": 67124, "ELEMENT_SET_NO": 999, "REV_AT_EPOCH": 306, "BSTAR": -0.011702, "MEAN_MOTION_DOT": -0.0181096, "MEAN_MOTION_DDOT": 0}, "tle": {"line1": "1 67124U 25299Y   25360.75003471 -.01810960  00000+0 -11702-1 0  9998", "line2": "2 67124  42.9984 230.7322 0001440 264.3516 252.9619 15.78154469  3066"}}, "geometry": {"type": "Point", "coordinates": [-125.41101800662982, 4.862813313739362]}}, {"type": "Feature", "properties": {"norad_id": 67125, "name": "STARLINK-36219", "group": "last-30-days", "lat": 5.976829856918789, "lon": -124.20264927903825, "alt_km": 337.504349285593, "timestamp": "2025-12-26T23:26:40.924649+00:00", "meta": {"OBJECT_NAME": "STARLINK-36219", "OBJECT_ID": "2025-299Z", "EPOCH": "2025-12-26T18:00:02.998944", "MEAN_MOTION": 15.78164338, "ECCENTRICITY": 0.0001427, "INCLINATION": 42.998, "RA_OF_ASC_NODE": 230.7278, "ARG_OF_PERICENTER": 265.2268, "MEAN_ANOMALY": 253.7211, "EPHEMERIS_TYPE": 0, "CLASSIFICATION_TYPE": "U", "NORAD_CAT_ID": 67125, "ELEMENT_SET_NO": 999, "REV_AT_EPOCH": 306, "BSTAR": -0.011699, "MEAN_MOTION_DOT": -0.01811239, "MEAN_MOTION_DDOT": 0}, "tle": {"line1": "1 67125U 25299Z   25360.75003471 -.01811239  00000+0 -11699-1 0  9994", "line2": "2 67125  42.9980 230.7278 0001427 265.2268 253.7211 15.78164338  3065"}}, "geometry": {"type": "Point", "coordinates": [-124.20264927903825, 5.976829856918789]}}, {"type": "Feature", "properties": {"norad_id": 67126, "name": "STARLINK-36223", "group": "last-30-days", "lat": 7.240053234008719, "lon": -122.82271398260315, "alt_km": 337.34804498657286, "timestamp": "2025-12-26T23:26:40.924658+00:00", "meta": {"OBJECT_NAME": "STARLINK-36223", "OBJECT_ID": "2025-299AA", "EPOCH": "2025-12-26T18:00:02.998944", "MEAN_MOTION": 15.78166805, "ECCENTRICITY": 0.0001403, "INCLINATION": 42.9981, "RA_OF_ASC_NODE": 230.723, "ARG_OF_PERICENTER": 265.0439, "MEAN_ANOMALY": 255.7691, "EPHEMERIS_TYPE": 0, "CLASSIFICATION_TYPE": "U", "NORAD_CAT_ID": 67126, "ELEMENT_SET_NO": 999, "REV_AT_EPOCH": 306, "BSTAR": -0.011692, "MEAN_MOTION_DOT": -0.01810388, "MEAN_MOTION_DDOT": 0}, "tle": {"line1": "1 67126U 25299AA  25360.75003471 -.01810388  00000+0 -11692-1 0  9992", "line2": "2 67126  42.9981 230.7230 0001403 265.0439 255.7691 15.78166805  3062"}}, "geometry": {"type": "Point", "coordinates": [-122.82271398260315, 7.240053234008719]}}, {"type": "Feature", "properties": {"norad_id": 67127, "name": "STARLINK-36164", "group": "last-30-days", "lat": 8.41376946864801, "lon": -121.52928388462794, "alt_km": 337.1858195056557, "timestamp": "2025-12-26T23:26:40.924668+00:00", "meta": {"OBJECT_NAME": "STARLINK-36164", "OBJECT_ID": "2025-299AB", "EPOCH": "2025-12-26T18:00:02.998944", "MEAN_MOTION": 15.78173457, "ECCENTRICITY": 0.0001401, "INCLINATION": 42.9981, "RA_OF_ASC_NODE": 230.7187, "ARG_OF_PERICENTER": 265.1476, "MEAN_ANOMALY": 257.4001, "EPHEMERIS_TYPE": 0, "CLASSIFICATION_TYPE": "U", "NORAD_CAT_ID": 67127, "ELEMENT_SET_NO": 999, "REV_AT_EPOCH": 306, "BSTAR": -0.011685, "MEAN_MOTION_DOT": -0.0180995, "MEAN_MOTION_DDOT": 0}, "tle": {"line1": "1 67127U 25299AB  25360.75003471 -.01809950  00000+0 -11685-1 0  9998", "line2": "2 67127  42.9981 230.7187 0001401 265.1476 257.4001 15.78173457  3069"}}, "geometry": {"type": "Point", "coordinates": [-121.52928388462794, 8.41376946864801]}}, {"type": "Feature", "properties": {"norad_id": 67128, "name": "STARLINK-35685", "group": "last-30-days", "lat": 11.438169978273995, "lon": -118.13356392346942, "alt_km": 336.77332616143303, "timestamp": "2025-12-26T23:26:40.924677+00:00", "meta": {"OBJECT_NAME": "STARLINK-35685", "OBJECT_ID": "2025-299AC", "EPOCH": "2025-12-26T18:00:02.998944", "MEAN_MOTION": 15.78145892, "ECCENTRICITY": 0.0001331, "INCLINATION": 42.9979, "RA_OF_ASC_NODE": 230.7069, "ARG_OF_PERICENTER": 270.8743, "MEAN_ANOMALY": 256.2124, "EPHEMERIS_TYPE": 0, "CLASSIFICATION_TYPE": "U", "NORAD_CAT_ID": 67128, "ELEMENT_SET_NO": 999, "REV_AT_EPOCH": 306, "BSTAR": -0.011708, "MEAN_MOTION_DOT": -0.01811051, "MEAN_MOTION_DDOT": 0}, "tle": {"line1": "1 67128U 25299AC  25360.75003471 -.01811051  00000+0 -11708-1 0  9990", "line2": "2 67128  42.9979 230.7069 0001331 270.8743 256.2124 15.78145892  3063"}}, "geometry": {"type": "Point", "coordinates": [-118.13356392346942, 11.438169978273995]}}, {"type": "Feature", "properties": {"norad_id": 67129, "name": "STARLINK-36214", "group": "last-30-days", "lat": 9.72348331845314, "lon": -120.07100717567606, "alt_km": 337.0439744920077, "timestamp": "2025-12-26T23:26:40.924686+00:00", "meta": {"OBJECT_NAME": "STARLINK-36214", "OBJECT_ID": "2025-299AD", "EPOCH": "2025-12-26T18:00:02.998944", "MEAN_MOTION": 15.78170776, "ECCENTRICITY": 0.0001442, "INCLINATION": 42.9981, "RA_OF_ASC_NODE": 230.7138, "ARG_OF_PERICENTER": 265.0723, "MEAN_ANOMALY": 259.4265, "EPHEMERIS_TYPE": 0, "CLASSIFICATION_TYPE": "U", "NORAD_CAT_ID": 67129, "ELEMENT_SET_NO": 999, "REV_AT_EPOCH": 306, "BSTAR": -0.011685, "MEAN_MOTION_DOT": -0.01809722, "MEAN_MOTION_DDOT": 0}, "tle": {"line1": "1 67129U 25299AD  25360.75003471 -.01809722  00000+0 -11685-1 0  9997", "line2": "2 67129  42.9981 230.7138 0001442 265.0723 259.4265 15.78170776  3061"}}, "geometry": {"type": "Point", "coordinates": [-120.07100717567606, 9.72348331845314]}}, {"type": "Feature", "properties": {"norad_id": 67130, "name": "STARLINK-36194", "group": "last-30-days", "lat": 14.194441401231073, "lon": -114.93253658941126, "alt_km": 336.7749604164301, "timestamp": "2025-12-26T23:26:40.924695+00:00", "meta": {"OBJECT_NAME": "STARLINK-36194", "OBJECT_ID": "2025-299AE", "EPOCH": "2025-12-26T18:00:02.998944", "MEAN_MOTION": 15.7805186, "ECCENTRICITY": 0.0001169, "INCLINATION": 42.9981, "RA_OF_ASC_NODE": 230.6982, "ARG_OF_PERICENTER": 262.6844, "MEAN_ANOMALY": 268.6491, "EPHEMERIS_TYPE": 0, "CLASSIFICATION_TYPE": "U", "NORAD_CAT_ID": 67130, "ELEMENT_SET_NO": 999, "REV_AT_EPOCH": 306, "BSTAR": -0.011732, "MEAN_MOTION_DOT": -0.01807314, "MEAN_MOTION_DDOT": 0}, "tle": {"line1": "1 67130U 25299AE  25360.75003471 -.01807314  00000+0 -11732-1 0  9997", "line2": "2 67130  42.9981 230.6982 0001169 262.6844 268.6491 15.78051860  3067"}}, "geometry": {"type": "Point", "coordinates": [-114.93253658941126, 14.194441401231073]}}, {"type": "Feature", "properties": {"norad_id": 67131, "name": "ZIYUAN 3-04 (ZY 3-04)", "group": "last-30-days", "lat": 77.33628801065036, "lon": 39.16018626419995, "alt_km": 494.32461403887646, "timestamp": "2025-12-26T23:26:40.924705+00:00", "meta": {"OBJECT_NAME": "ZIYUAN 3-04 (ZY 3-04)", "OBJECT_ID": "2025-300A", "EPOCH": "2025-12-21T18:22:34.187808", "MEAN_MOTION": 15.21179479, "ECCENTRICITY": 0.00027623, "INCLINATION": 97.4922, "RA_OF_ASC_NODE": 69.8294, "ARG_OF_PERICENTER": 167.6924, "MEAN_ANOMALY": 192.438, "EPHEMERIS_TYPE": 0, "CLASSIFICATION_TYPE": "U", "NORAD_CAT_ID": 67131, "ELEMENT_SET_NO": 999, "REV_AT_EPOCH": 86, "BSTAR": 6.5769783e-05, "MEAN_MOTION_DOT": 1.396e-05, "MEAN_MOTION_DDOT": 0}, "tle": {"line1": "1 67131U 25300A   25355.76567347  .00001396  00000+0  65770-4 0  9990", "line2": "2 67131  97.4922  69.8294 0002762 167.6924 192.4380 15.21179479   860"}}, "geometry": {"type": "Point", "coordinates": [39.16018626419995, 77.33628801065036]}}]}